start=new Date('2023-05-17T00:00:00.000Z').valueOf();
sats=[{"ARG_OF_PERICENTER":"101.1268","TLE_LINE2":"2 50806  53.2171  93.0423 0001181 101.1268 258.9857 15.08840238 75387","MEAN_ANOMALY":"258.9857","COUNTRY_CODE":"US","OBJECT_NAME":"STARLINK-3335","MEAN_MOTION_DDOT":"0.0000000000000","TIME_SYSTEM":"UTC","MEAN_ELEMENT_THEORY":"SGP4","REF_FRAME":"TEME","PERIOD":"95.438","ELEMENT_SET_NO":"999","RCS_SIZE":"LARGE","DECAY_DATE":null,"CLASSIFICATION_TYPE":"U","GP_ID":"231996874","TLE_LINE1":"1 50806U 22001D   23136.90061373 -.00000329  00000-0 -25859-5 0  9998","PERIAPSIS":"538.928","BSTAR":"-0.00000258590000","INCLINATION":"53.2171","NORAD_CAT_ID":"50806","SEMIMAJOR_AXIS":"6917.880","ECCENTRICITY":"0.00011810","LAUNCH_DATE":"2022-01-06","CENTER_NAME":"EARTH","EPHEMERIS_TYPE":"0","REV_AT_EPOCH":"7538","SITE":"AFETR","RA_OF_ASC_NODE":"93.0423","OBJECT_TYPE":"PAYLOAD","MEAN_MOTION_DOT":"-0.00000329","FILE":"3909742","EPOCH":"2023-05-16T21:36:53.026272","APOAPSIS":"540.562","OBJECT_ID":"2022-001D","MEAN_MOTION":"15.08840238"},{"MEAN_ELEMENT_THEORY":"SGP4","REF_FRAME":"TEME","TIME_SYSTEM":"UTC","CLASSIFICATION_TYPE":"U","RCS_SIZE":"LARGE","DECAY_DATE":null,"PERIOD":"95.440","ELEMENT_SET_NO":"999","MEAN_ANOMALY":"193.5239","TLE_LINE2":"2 50807  53.2187  95.7814 0002271 166.5814 193.5239 15.08808630 75299","ARG_OF_PERICENTER":"166.5814","MEAN_MOTION_DDOT":"0.0000000000000","OBJECT_NAME":"STARLINK-3353","COUNTRY_CODE":"US","EPHEMERIS_TYPE":"0","CENTER_NAME":"EARTH","LAUNCH_DATE":"2022-01-06","ECCENTRICITY":"0.00022710","MEAN_MOTION":"15.08808630","EPOCH":"2023-05-16T06:57:13.326912","FILE":"3909472","APOAPSIS":"541.412","OBJECT_ID":"2022-001E","RA_OF_ASC_NODE":"95.7814","OBJECT_TYPE":"PAYLOAD","MEAN_MOTION_DOT":"0.00007229","REV_AT_EPOCH":"7529","SITE":"AFETR","GP_ID":"231965141","SEMIMAJOR_AXIS":"6917.976","NORAD_CAT_ID":"50807","BSTAR":"0.00047221000000","INCLINATION":"53.2187","PERIAPSIS":"538.270","TLE_LINE1":"1 50807U 22001E   23136.28973758  .00007229  00000-0  47221-3 0  9998"},{"EPHEMERIS_TYPE":"0","LAUNCH_DATE":"2022-01-06","CENTER_NAME":"EARTH","ECCENTRICITY":"0.00011400","MEAN_MOTION":"15.08842376","OBJECT_ID":"2022-001F","APOAPSIS":"540.527","FILE":"3909472","EPOCH":"2023-05-16T03:57:02.583072","MEAN_MOTION_DOT":"0.00001580","RA_OF_ASC_NODE":"96.3460","OBJECT_TYPE":"PAYLOAD","SITE":"AFETR","REV_AT_EPOCH":"7527","GP_ID":"231963401","SEMIMAJOR_AXIS":"6917.873","NORAD_CAT_ID":"50808","INCLINATION":"53.2166","BSTAR":"0.00011730000000","PERIAPSIS":"538.949","TLE_LINE1":"1 50808U 22001F   23136.16461323  .00001580  00000-0  11730-3 0  9996","REF_FRAME":"TEME","MEAN_ELEMENT_THEORY":"SGP4","TIME_SYSTEM":"UTC","CLASSIFICATION_TYPE":"U","DECAY_DATE":null,"RCS_SIZE":"LARGE","PERIOD":"95.437","ELEMENT_SET_NO":"999","MEAN_ANOMALY":"268.4373","TLE_LINE2":"2 50808  53.2166  96.3460 0001140  91.6750 268.4373 15.08842376 75276","ARG_OF_PERICENTER":"91.6750","MEAN_MOTION_DDOT":"0.0000000000000","OBJECT_NAME":"STARLINK-3355","COUNTRY_CODE":"US"},{"REF_FRAME":"TEME","MEAN_ELEMENT_THEORY":"SGP4","TIME_SYSTEM":"UTC","PERIOD":"95.438","ELEMENT_SET_NO":"999","CLASSIFICATION_TYPE":"U","DECAY_DATE":null,"RCS_SIZE":"LARGE","ARG_OF_PERICENTER":"94.9961","MEAN_ANOMALY":"265.1186","TLE_LINE2":"2 50809  53.2169  93.0587 0001354  94.9961 265.1186 15.08838782 75385","COUNTRY_CODE":"US","MEAN_MOTION_DDOT":"0.0000000000000","OBJECT_NAME":"STARLINK-3232","LAUNCH_DATE":"2022-01-06","CENTER_NAME":"EARTH","ECCENTRICITY":"0.00013540","EPHEMERIS_TYPE":"0","MEAN_MOTION_DOT":"-0.00000061","RA_OF_ASC_NODE":"93.0587","OBJECT_TYPE":"PAYLOAD","SITE":"AFETR","REV_AT_EPOCH":"7538","MEAN_MOTION":"15.08838782","OBJECT_ID":"2022-001G","APOAPSIS":"540.686","FILE":"3909742","EPOCH":"2023-05-16T21:31:35.247936","GP_ID":"231996125","INCLINATION":"53.2169","BSTAR":"0.00001424200000","TLE_LINE1":"1 50809U 22001G   23136.89693574 -.00000061  00000-0  14242-4 0  9998","PERIAPSIS":"538.812","SEMIMAJOR_AXIS":"6917.884","NORAD_CAT_ID":"50809"},{"TLE_LINE2":"2 50810  53.2157  96.3628 0001286  90.6379 269.4761 15.08841211 75271","MEAN_ANOMALY":"269.4761","ARG_OF_PERICENTER":"90.6379","OBJECT_NAME":"STARLINK-3348","MEAN_MOTION_DDOT":"0.0000000000000","COUNTRY_CODE":"US","TIME_SYSTEM":"UTC","MEAN_ELEMENT_THEORY":"SGP4","REF_FRAME":"TEME","RCS_SIZE":"LARGE","DECAY_DATE":null,"CLASSIFICATION_TYPE":"U","PERIOD":"95.437","ELEMENT_SET_NO":"999","GP_ID":"231964397","NORAD_CAT_ID":"50810","SEMIMAJOR_AXIS":"6917.877","PERIAPSIS":"538.852","TLE_LINE1":"1 50810U 22001H   23136.16093629  .00001830  00000-0  13306-3 0  9998","BSTAR":"0.00013306000000","INCLINATION":"53.2157","EPHEMERIS_TYPE":"0","ECCENTRICITY":"0.00012860","CENTER_NAME":"EARTH","LAUNCH_DATE":"2022-01-06","FILE":"3909472","EPOCH":"2023-05-16T03:51:44.895456","APOAPSIS":"540.631","OBJECT_ID":"2022-001H","MEAN_MOTION":"15.08841211","REV_AT_EPOCH":"7527","SITE":"AFETR","RA_OF_ASC_NODE":"96.3628","OBJECT_TYPE":"PAYLOAD","MEAN_MOTION_DOT":"0.00001830"},{"MEAN_MOTION_DDOT":"0.0000000000000","OBJECT_NAME":"STARLINK-3347","COUNTRY_CODE":"US","MEAN_ANOMALY":"264.7231","TLE_LINE2":"2 50811  53.2185  95.7973 0001411  95.3922 264.7231 15.08843789 75299","ARG_OF_PERICENTER":"95.3922","CLASSIFICATION_TYPE":"U","DECAY_DATE":null,"RCS_SIZE":"LARGE","PERIOD":"95.437","ELEMENT_SET_NO":"999","REF_FRAME":"TEME","MEAN_ELEMENT_THEORY":"SGP4","TIME_SYSTEM":"UTC","SEMIMAJOR_AXIS":"6917.869","NORAD_CAT_ID":"50811","INCLINATION":"53.2185","BSTAR":"0.00008369500000","PERIAPSIS":"538.758","TLE_LINE1":"1 50811U 22001J   23136.28605169  .00001044  00000-0  83695-4 0  9996","GP_ID":"231965143","MEAN_MOTION":"15.08843789","OBJECT_ID":"2022-001J","APOAPSIS":"540.710","FILE":"3909472","EPOCH":"2023-05-16T06:51:54.866016","MEAN_MOTION_DOT":"0.00001044","OBJECT_TYPE":"PAYLOAD","RA_OF_ASC_NODE":"95.7973","SITE":"AFETR","REV_AT_EPOCH":"7529","EPHEMERIS_TYPE":"0","CENTER_NAME":"EARTH","LAUNCH_DATE":"2022-01-06","ECCENTRICITY":"0.00014110"},{"NORAD_CAT_ID":"50812","SEMIMAJOR_AXIS":"6917.887","PERIAPSIS":"539.125","TLE_LINE1":"1 50812U 22001K   23136.26030721  .00001700  00000-0  12487-3 0  9990","INCLINATION":"53.2176","BSTAR":"0.00012487000000","GP_ID":"231963901","OBJECT_ID":"2022-001K","APOAPSIS":"540.379","EPOCH":"2023-05-16T06:14:50.542944","FILE":"3909472","MEAN_MOTION":"15.08837806","SITE":"AFETR","REV_AT_EPOCH":"7528","MEAN_MOTION_DOT":"0.00001700","OBJECT_TYPE":"PAYLOAD","RA_OF_ASC_NODE":"96.0263","EPHEMERIS_TYPE":"0","ECCENTRICITY":"0.00009060","LAUNCH_DATE":"2022-01-06","CENTER_NAME":"EARTH","OBJECT_NAME":"STARLINK-3338","MEAN_MOTION_DDOT":"0.0000000000000","COUNTRY_CODE":"US","TLE_LINE2":"2 50812  53.2176  96.0263 0000906  94.9764 265.1332 15.08837806 75282","MEAN_ANOMALY":"265.1332","ARG_OF_PERICENTER":"94.9764","DECAY_DATE":null,"RCS_SIZE":"LARGE","CLASSIFICATION_TYPE":"U","ELEMENT_SET_NO":"999","PERIOD":"95.438","TIME_SYSTEM":"UTC","REF_FRAME":"TEME","MEAN_ELEMENT_THEORY":"SGP4"},{"MEAN_MOTION":"15.08843774","OBJECT_ID":"2022-001L","APOAPSIS":"540.736","FILE":"3909742","EPOCH":"2023-05-16T20:59:46.977792","MEAN_MOTION_DOT":"0.00000472","RA_OF_ASC_NODE":"93.1052","OBJECT_TYPE":"PAYLOAD","SITE":"AFETR","REV_AT_EPOCH":"7538","EPHEMERIS_TYPE":"0","LAUNCH_DATE":"2022-01-06","CENTER_NAME":"EARTH","ECCENTRICITY":"0.00014490","SEMIMAJOR_AXIS":"6917.869","NORAD_CAT_ID":"50813","INCLINATION":"53.2188","BSTAR":"0.00004775600000","TLE_LINE1":"1 50813U 22001L   23136.87484928  .00000472  00000-0  47756-4 0  9993","PERIAPSIS":"538.731","GP_ID":"231996625","CLASSIFICATION_TYPE":"U","DECAY_DATE":null,"RCS_SIZE":"LARGE","PERIOD":"95.437","ELEMENT_SET_NO":"999","REF_FRAME":"TEME","MEAN_ELEMENT_THEORY":"SGP4","TIME_SYSTEM":"UTC","MEAN_MOTION_DDOT":"0.0000000000000","OBJECT_NAME":"STARLINK-3349","COUNTRY_CODE":"US","MEAN_ANOMALY":"275.0887","TLE_LINE2":"2 50813  53.2188  93.1052 0001449  85.0270 275.0887 15.08843774 75383","ARG_OF_PERICENTER":"85.0270"},{"TLE_LINE1":"1 50814U 22001M   23136.92545413 -.00000401  00000-0 -70865-5 0  9999","PERIAPSIS":"538.836","BSTAR":"-0.00000708650000","INCLINATION":"53.2175","NORAD_CAT_ID":"50814","SEMIMAJOR_AXIS":"6917.886","GP_ID":"231996875","REV_AT_EPOCH":"7525","SITE":"AFETR","RA_OF_ASC_NODE":"102.9270","OBJECT_TYPE":"PAYLOAD","MEAN_MOTION_DOT":"-0.00000401","FILE":"3909742","EPOCH":"2023-05-16T22:12:39.236832","OBJECT_ID":"2022-001M","APOAPSIS":"540.665","MEAN_MOTION":"15.08838216","ECCENTRICITY":"0.00013220","CENTER_NAME":"EARTH","LAUNCH_DATE":"2022-01-06","EPHEMERIS_TYPE":"0","COUNTRY_CODE":"US","OBJECT_NAME":"STARLINK-3324","MEAN_MOTION_DDOT":"0.0000000000000","ARG_OF_PERICENTER":"97.4610","TLE_LINE2":"2 50814  53.2175 102.9270 0001322  97.4610 262.6532 15.08838216 75256","MEAN_ANOMALY":"262.6532","ELEMENT_SET_NO":"999","PERIOD":"95.438","RCS_SIZE":"LARGE","DECAY_DATE":null,"CLASSIFICATION_TYPE":"U","TIME_SYSTEM":"UTC","MEAN_ELEMENT_THEORY":"SGP4","REF_FRAME":"TEME"},{"DECAY_DATE":null,"RCS_SIZE":"LARGE","CLASSIFICATION_TYPE":"U","PERIOD":"95.438","ELEMENT_SET_NO":"999","TIME_SYSTEM":"UTC","REF_FRAME":"TEME","MEAN_ELEMENT_THEORY":"SGP4","OBJECT_NAME":"STARLINK-3234","MEAN_MOTION_DDOT":"0.0000000000000","COUNTRY_CODE":"US","TLE_LINE2":"2 50815  53.2178 106.1518 0001223  89.4795 270.6337 15.08838210 75140","MEAN_ANOMALY":"270.6337","ARG_OF_PERICENTER":"89.4795","APOAPSIS":"540.597","OBJECT_ID":"2022-001N","FILE":"3909472","EPOCH":"2023-05-16T04:59:18.512160","MEAN_MOTION":"15.08838210","SITE":"AFETR","REV_AT_EPOCH":"7514","MEAN_MOTION_DOT":"0.00000321","RA_OF_ASC_NODE":"106.1518","OBJECT_TYPE":"PAYLOAD","EPHEMERIS_TYPE":"0","ECCENTRICITY":"0.00012230","LAUNCH_DATE":"2022-01-06","CENTER_NAME":"EARTH","NORAD_CAT_ID":"50815","SEMIMAJOR_AXIS":"6917.886","TLE_LINE1":"1 50815U 22001N   23136.20785315  .00000321  00000-0  38258-4 0  9996","PERIAPSIS":"538.905","INCLINATION":"53.2178","BSTAR":"0.00003825800000","GP_ID":"231965643"}];
